{
    "links": {
        "self": "http://www.neowsapp.com/rest/v1/neo/3836910?api_key=iIulBulltgU6a56xZRHN4H3l9WmuAYTsLGpBGhQ2"
    },
    "id": "3836910",
    "neo_reference_id": "3836910",
    "name": "(2018 XW4)",
    "designation": "2018 XW4",
    "nasa_jpl_url": "http://ssd.jpl.nasa.gov/sbdb.cgi?sstr=3836910",
    "absolute_magnitude_h": 24.1,
    "estimated_diameter": {
        "kilometers": {
            "estimated_diameter_min": 0.040230458,
            "estimated_diameter_max": 0.0899580388
        },
        "meters": {
            "estimated_diameter_min": 40.2304579834,
            "estimated_diameter_max": 89.9580388169
        },
        "miles": {
            "estimated_diameter_min": 0.0249980399,
            "estimated_diameter_max": 0.0558973165
        },
        "feet": {
            "estimated_diameter_min": 131.9896957704,
            "estimated_diameter_max": 295.1379320721
        }
    },
    "is_potentially_hazardous_asteroid": false,
    "close_approach_data": [
        {
            "close_approach_date": "2018-11-29",
            "close_approach_date_full": "2018-Nov-29 11:36",
            "epoch_date_close_approach": 1543491360000,
            "relative_velocity": {
                "kilometers_per_second": "17.9161333038",
                "kilometers_per_hour": "64498.0798937257",
                "miles_per_hour": "40076.5985872986"
            },
            "miss_distance": {
                "astronomical": "0.0724208164",
                "lunar": "28.1716975796",
                "kilometers": "10833999.877101068",
                "miles": "6731935.3596400184"
            },
            "orbiting_body": "Earth"
        }
    ],
    "orbital_data": {
        "orbit_id": "2",
        "orbit_determination_date": "2018-12-20 07:02:20",
        "first_observation_date": "2018-12-13",
        "last_observation_date": "2018-12-18",
        "data_arc_in_days": 5,
        "observations_used": 24,
        "orbit_uncertainty": "9",
        "minimum_orbit_intersection": ".0351883",
        "jupiter_tisserand_invariant": "3.320",
        "epoch_osculation": "2458467.5",
        "eccentricity": ".6493698480353086",
        "semi_major_axis": "2.237135534560735",
        "inclination": "4.536427950811227",
        "ascending_node_longitude": "88.5263654556253",
        "orbital_period": "1222.184780106007",
        "perihelion_distance": ".7844071724486414",
        "perihelion_argument": "271.4372799609845",
        "aphelion_distance": "3.689863896672828",
        "perihelion_time": "2458410.688088984240",
        "mean_anomaly": "16.73420279697777",
        "mean_motion": ".2945544780624541",
        "equinox": "J2000",
        "orbit_class": {
            "orbit_class_type": "APO",
            "orbit_class_description": "Near-Earth asteroid orbits which cross the Earth’s orbit similar to that of 1862 Apollo",
            "orbit_class_range": "a (semi-major axis) > 1.0 AU; q (perihelion) < 1.017 AU"
        }
    },
    "is_sentry_object": false
}